********  Ephemeris for PRN-13  ********
PRN:                       13
Week:                      993
Time of Ephemeris (s):     338384
Square Root of A(m^1/2):   5153.55943680
Eccentricity:              0.001788272871640
Mean anomaly (deg):        -91.821477161903829
Inclination (deg):         55.084123285474135
Long of asc. node (deg):   14.412949383250082
Argument of perigee (deg): -68.393209380752310
d-inclination/dt (deg/s):  -6.446043698829011e-009
d-Omega/dt (deg/s):        -4.575053935694846e-007
DeltaN (mean motion corr): 4.25267714107000e-009
Cuc:                       -5.49666583538000e-006
Cus:                       1.07903033495000e-005
Crc:                       1.71187500000000e+002
Crs:                       -1.08156250000000e+002
Cic:                       2.98023223877000e-008
Cis:                       4.28408384323000e-008
Clock ref. time (s):       338384
af0:                       -4.54695895314000e-004
af1:                       -1.89857018995000e-011
af2:                       0.00000000000000e+000
Group delay (s):           5.58793544769000e-009

********  Ephemeris for PRN-15  ********
PRN:                       15
Week:                      993
Time of Ephemeris (s):     338384
Square Root of A(m^1/2):   5153.61806679
Eccentricity:              0.006998082622890
Mean anomaly (deg):        -38.639127826306037
Inclination (deg):         56.307853488276550
Long of asc. node (deg):   -102.126269722074820
Argument of perigee (deg): 88.213174966885973
d-inclination/dt (deg/s):  1.590024112372475e-008
d-Omega/dt (deg/s):        -4.661819730244477e-007
DeltaN (mean motion corr): 4.13017203824000e-009
Cuc:                       5.59911131859000e-006
Cus:                       6.78561627865000e-006
Crc:                       2.59437500000000e+002
Crs:                       1.06875000000000e+002
Cic:                       -5.58793544769000e-008
Cis:                       6.70552253723000e-008
Clock ref. time (s):       338384
af0:                       6.43660314381000e-004
af1:                       4.09272615798000e-012
af2:                       0.00000000000000e+000
Group delay (s):           -9.31322574615000e-010

********  Ephemeris for PRN-19  ********
PRN:                       19
Week:                      993
Time of Ephemeris (s):     338384
Square Root of A(m^1/2):   5153.61985207
Eccentricity:              0.004531952552500
Mean anomaly (deg):        -4.144702591000579
Inclination (deg):         53.102792669059738
Long of asc. node (deg):   70.805461686263826
Argument of perigee (deg): -162.286944799295810
d-inclination/dt (deg/s):  3.405148163436219e-008
d-Omega/dt (deg/s):        -4.848652679355593e-007
DeltaN (mean motion corr): 5.32272171272000e-009
Cuc:                       1.82911753654000e-006
Cus:                       1.00899487734000e-005
Crc:                       1.66062500000000e+002
Crs:                       3.46250000000000e+001
Cic:                       5.96046447754000e-008
Cis:                       8.38190317154000e-008
Clock ref. time (s):       338384
af0:                       -9.88766551018000e-005
af1:                       -4.09272615798000e-012
af2:                       0.00000000000000e+000
Group delay (s):           -3.25962901115000e-009

********  Ephemeris for PRN-27  ********
PRN:                       27
Week:                      993
Time of Ephemeris (s):     338384
Square Root of A(m^1/2):   5153.71072769
Eccentricity:              0.013140468043300
Mean anomaly (deg):        -32.254310064003263
Inclination (deg):         53.877863818789372
Long of asc. node (deg):   72.807957194779689
Argument of perigee (deg): -171.211472181852170
d-inclination/dt (deg/s):  3.495188138913871e-008
d-Omega/dt (deg/s):        -4.787671059601967e-007
DeltaN (mean motion corr): 5.03520973670000e-009
Cuc:                       1.82725489140000e-006
Cus:                       9.66526567936000e-006
Crc:                       1.78562500000000e+002
Crs:                       3.46250000000000e+001
Cic:                       3.16649675369000e-007
Cis:                       9.31322574615000e-009
Clock ref. time (s):       338384
af0:                       8.78795981407000e-006
af1:                       1.13686837722000e-012
af2:                       0.00000000000000e+000
Group delay (s):           4.65661287308000e-010

********  Ephemeris for PRN-31  ********
PRN:                       31
Week:                      993
Time of Ephemeris (s):     338384
Square Root of A(m^1/2):   5153.68611336
Eccentricity:              0.008620429900470
Mean anomaly (deg):        84.623286221343790
Inclination (deg):         54.792996067546973
Long of asc. node (deg):   -166.368407104393950
Argument of perigee (deg): 43.099793046695808
d-inclination/dt (deg/s):  -2.725755621212413e-008
d-Omega/dt (deg/s):        -4.624166649592269e-007
DeltaN (mean motion corr): 4.62233539597000e-009
Cuc:                       5.73694705963000e-007
Cus:                       1.13323330879000e-005
Crc:                       1.61718750000000e+002
Crs:                       8.84375000000000e+000
Cic:                       -1.47148966789000e-007
Cis:                       1.43423676491000e-007
Clock ref. time (s):       338384
af0:                       1.25053338706000e-005
af1:                       5.68434188608000e-013
af2:                       0.00000000000000e+000
Group delay (s):           1.39698386192000e-009

********  Ephemeris for PRN- 2  ********
PRN:                       2
Week:                      993
Time of Ephemeris (s):     338400
Square Root of A(m^1/2):   5153.65867233
Eccentricity:              0.018382176873300
Mean anomaly (deg):        -137.597772320944440
Inclination (deg):         53.659806679905621
Long of asc. node (deg):   131.260974565241700
Argument of perigee (deg): -127.678690887903600
d-inclination/dt (deg/s):  5.913989298297474e-009
d-Omega/dt (deg/s):        -4.802609510080700e-007
DeltaN (mean motion corr): 5.54844540074000e-009
Cuc:                       -3.68803739548000e-007
Cus:                       4.43868339062000e-006
Crc:                       2.77937500000000e+002
Crs:                       -3.25000000000000e+000
Cic:                       2.51457095146000e-007
Cis:                       -1.34110450745000e-007
Clock ref. time (s):       338400
af0:                       -1.51493586600000e-005
af1:                       -4.54747350886000e-012
af2:                       0.00000000000000e+000
Group delay (s):           -2.32830643654000e-009

********  Ephemeris for PRN- 3  ********
PRN:                       3
Week:                      993
Time of Ephemeris (s):     338400
Square Root of A(m^1/2):   5153.68377876
Eccentricity:              0.001218771096320
Mean anomaly (deg):        38.989943666412060
Inclination (deg):         54.286438263975100
Long of asc. node (deg):   -166.795790288482380
Argument of perigee (deg): 120.952895377064280
d-inclination/dt (deg/s):  -2.257138476123357e-008
d-Omega/dt (deg/s):        -4.624371285897764e-007
DeltaN (mean motion corr): 4.75484091535000e-009
Cuc:                       2.81259417534000e-007
Cus:                       1.07921659946000e-005
Crc:                       1.64437500000000e+002
Crs:                       4.75000000000000e+000
Cic:                       -3.35276126862000e-008
Cis:                       1.11758708954000e-008
Clock ref. time (s):       338400
af0:                       8.65631736815000e-005
af1:                       3.63797880709000e-012
af2:                       0.00000000000000e+000
Group delay (s):           1.39698386192000e-009

********  Ephemeris for PRN- 4  ********
PRN:                       4
Week:                      993
Time of Ephemeris (s):     338400
Square Root of A(m^1/2):   5153.71672249
Eccentricity:              0.005042722448710
Mean anomaly (deg):        -4.393401704725976
Inclination (deg):         55.995853990314899
Long of asc. node (deg):   -104.435265865006070
Argument of perigee (deg): -43.106329338622942
d-inclination/dt (deg/s):  1.514308678451341e-008
d-Omega/dt (deg/s):        -4.626008376364640e-007
DeltaN (mean motion corr): 4.12552898770000e-009
Cuc:                       5.41657209396000e-006
Cus:                       7.97770917416000e-006
Crc:                       2.35968750000000e+002
Crs:                       1.04812500000000e+002
Cic:                       3.35276126862000e-008
Cis:                       -7.82310962677000e-008
Clock ref. time (s):       338400
af0:                       4.32949047536000e-004
af1:                       2.75122147286000e-011
af2:                       0.00000000000000e+000
Group delay (s):           2.32830643654000e-009

********  Ephemeris for PRN- 5  ********
PRN:                       5
Week:                      993
Time of Ephemeris (s):     338400
Square Root of A(m^1/2):   5153.75041962
Eccentricity:              0.001447563408870
Mean anomaly (deg):        -5.015338249506655
Inclination (deg):         53.828688031067983
Long of asc. node (deg):   132.295426475067270
Argument of perigee (deg): -3.562249755486365
d-inclination/dt (deg/s):  -1.759872247932724e-009
d-Omega/dt (deg/s):        -4.942580744683483e-007
DeltaN (mean motion corr): 5.60416200727000e-009
Cuc:                       1.47148966789000e-007
Cus:                       4.68268990517000e-006
Crc:                       2.80000000000000e+002
Crs:                       1.96875000000000e+000
Cic:                       9.31322574616000e-009
Cis:                       -5.58793544769000e-009
Clock ref. time (s):       338400
af0:                       1.81858427823000e-004
af1:                       1.81898940355000e-012
af2:                       0.00000000000000e+000
Group delay (s):           2.32830643654000e-009

